{
  "norad_id": 43648,
  "name": "BEIDOU-3 M15",
  "history": [
    {
      "epoch": "2026-03-28T01:40:42.062592Z",
      "apogee_km": 21543.17056096118,
      "perigee_km": 21512.71219265603,
      "latitude_deg": 8.190337644393669e-06,
      "longitude_deg": 92.17790601062536,
      "height_km": 21517.310724813593,
      "semi_major_axis_km": 27906.078376808604,
      "eccentricity": 0.00054573,
      "inclination_deg": 54.1588,
      "raan_deg": 302.8305,
      "arg_perigee_deg": 44.531,
      "mean_anomaly_deg": 315.5495,
      "mean_motion_rev_day": 1.86232103
    }
  ]
}